{
  "type": "FeatureCollection",
  "features": [
    {
      "type": "Feature",
      "properties": {
        "norad_id": 66498,
        "name": "STARLINK-35907",
        "group": "last-30-days",
        "lat": 21.99261982605326,
        "lon": 179.33001908783223,
        "alt_km": 407.225311657784,
        "timestamp": "2025-12-07T20:38:12.866688+00:00",
        "meta_object_name": "STARLINK-35907",
        "meta_object_id": "2025-263P",
        "meta_epoch": "2025-12-07T06:00:04.999968",
        "meta_mean_motion": 15.5500917,
        "meta_eccentricity": 0.00013758,
        "meta_inclination": 43.0001,
        "meta_ra_of_asc_node": 157.2295,
        "meta_arg_of_pericenter": 267.7137,
        "meta_mean_anomaly": 310.8556,
        "meta_ephemeris_type": 0,
        "meta_classification_type": "U",
        "meta_norad_cat_id": 66498,
        "meta_element_set_no": 999,
        "meta_rev_at_epoch": 475,
        "meta_bstar": -0.03431193,
        "meta_mean_motion_dot": -0.02101572,
        "meta_mean_motion_ddot": 0,
        "tle_line1": "1 66498U 25263P   25341.25005787 -.02101572  00000+0 -34312-1 0  9993",
        "tle_line2": "2 66498  43.0001 157.2295 0001375 267.7137 310.8556 15.55009170  4750"
      },
      "geometry": {
        "type": "Point",
        "coordinates": [
          179.33001908783223,
          21.99261982605326
        ]
      }
    },
    {
      "type": "Feature",
      "properties": {
        "norad_id": 66499,
        "name": "STARLINK-35816",
        "group": "last-30-days",
        "lat": 24.323593243059975,
        "lon": -177.34612449281025,
        "alt_km": 406.94017764595355,
        "timestamp": "2025-12-07T20:38:12.866698+00:00",
        "meta_object_name": "STARLINK-35816",
        "meta_object_id": "2025-263Q",
        "meta_epoch": "2025-12-07T06:00:04.999968",
        "meta_mean_motion": 15.54997552,
        "meta_eccentricity": 0.00012873,
        "meta_inclination": 43.0005,
        "meta_ra_of_asc_node": 157.2211,
        "meta_arg_of_pericenter": 261.8319,
        "meta_mean_anomaly": 320.574,
        "meta_ephemeris_type": 0,
        "meta_classification_type": "U",
        "meta_norad_cat_id": 66499,
        "meta_element_set_no": 999,
        "meta_rev_at_epoch": 475,
        "meta_bstar": -0.033885798,
        "meta_mean_motion_dot": -0.0207747,
        "meta_mean_motion_ddot": 0,
        "tle_line1": "1 66499U 25263Q   25341.25005787 -.02077470  00000+0 -33886-1 0  9998",
        "tle_line2": "2 66499  43.0005 157.2211 0001287 261.8319 320.5740 15.54997552  4754"
      },
      "geometry": {
        "type": "Point",
        "coordinates": [
          -177.34612449281025,
          24.323593243059975
        ]
      }
    },
    {
      "type": "Feature",
      "properties": {
        "norad_id": 66500,
        "name": "STARLINK-35894",
        "group": "last-30-days",
        "lat": -5.836861754350098,
        "lon": 147.45120527478184,
        "alt_km": 415.0692617199975,
        "timestamp": "2025-12-07T20:38:12.866708+00:00",
        "meta_object_name": "STARLINK-35894",
        "meta_object_id": "2025-263R",
        "meta_epoch": "2025-12-07T06:00:04.999968",
        "meta_mean_motion": 15.50464647,
        "meta_eccentricity": 0.00012896,
        "meta_inclination": 43.0003,
        "meta_ra_of_asc_node": 157.3167,
        "meta_arg_of_pericenter": 298.0707,
        "meta_mean_anomaly": 245.4787,
        "meta_ephemeris_type": 0,
        "meta_classification_type": "U",
        "meta_norad_cat_id": 66500,
        "meta_element_set_no": 999,
        "meta_rev_at_epoch": 475,
        "meta_bstar": 0.0011407962,
        "meta_mean_motion_dot": 0.00066883,
        "meta_mean_motion_ddot": 0,
        "tle_line1": "1 66500U 25263R   25341.25005787  .00066883  00000+0  11408-2 0  9990",
        "tle_line2": "2 66500  43.0003 157.3167 0001289 298.0707 245.4787 15.50464647  4757"
      },
      "geometry": {
        "type": "Point",
        "coordinates": [
          147.45120527478184,
          -5.836861754350098
        ]
      }
    },
    {
      "type": "Feature",
      "properties": {
        "norad_id": 66501,
        "name": "STARLINK-35897",
        "group": "last-30-days",
        "lat": 25.456868502498207,
        "lon": -175.64558697092397,
        "alt_km": 406.71778546387577,
        "timestamp": "2025-12-07T20:38:12.866718+00:00",
        "meta_object_name": "STARLINK-35897",
        "meta_object_id": "2025-263S",
        "meta_epoch": "2025-12-07T06:00:04.999968",
        "meta_mean_motion": 15.54997791,
        "meta_eccentricity": 0.00013608,
        "meta_inclination": 43.0002,
        "meta_ra_of_asc_node": 157.2168,
        "meta_arg_of_pericenter": 267.2591,
        "meta_mean_anomaly": 317.0641,
        "meta_ephemeris_type": 0,
        "meta_classification_type": "U",
        "meta_norad_cat_id": 66501,
        "meta_element_set_no": 999,
        "meta_rev_at_epoch": 475,
        "meta_bstar": -0.03393352,
        "meta_mean_motion_dot": -0.02080139,
        "meta_mean_motion_ddot": 0,
        "tle_line1": "1 66501U 25263S   25341.25005787 -.02080139  00000+0 -33934-1 0  9992",
        "tle_line2": "2 66501  43.0002 157.2168 0001360 267.2591 317.0641 15.54997791  4756"
      },
      "geometry": {
        "type": "Point",
        "coordinates": [
          -175.64558697092397,
          25.456868502498207
        ]
      }
    },
    {
      "type": "Feature",
      "properties": {
        "norad_id": 66502,
        "name": "STARLINK-35922",
        "group": "last-30-days",
        "lat": 28.735092253264707,
        "lon": -170.34091743965425,
        "alt_km": 406.2917331238259,
        "timestamp": "2025-12-07T20:38:12.866730+00:00",
        "meta_object_name": "STARLINK-35922",
        "meta_object_id": "2025-263T",
        "meta_epoch": "2025-12-07T06:00:04.999968",
        "meta_mean_motion": 15.54992138,
        "meta_eccentricity": 0.00013643,
        "meta_inclination": 43.0004,
        "meta_ra_of_asc_node": 157.2014,
        "meta_arg_of_pericenter": 265.9934,
        "meta_mean_anomaly": 324.0832,
        "meta_ephemeris_type": 0,
        "meta_classification_type": "U",
        "meta_norad_cat_id": 66502,
        "meta_element_set_no": 999,
        "meta_rev_at_epoch": 475,
        "meta_bstar": -0.033782881,
        "meta_mean_motion_dot": -0.02071525,
        "meta_mean_motion_ddot": 0,
        "tle_line1": "1 66502U 25263T   25341.25005787 -.02071525  00000+0 -33783-1 0  9994",
        "tle_line2": "2 66502  43.0004 157.2014 0001364 265.9934 324.0832 15.54992138  4759"
      },
      "geometry": {
        "type": "Point",
        "coordinates": [
          -170.34091743965425,
          28.735092253264707
        ]
      }
    },
    {
      "type": "Feature",
      "properties": {
        "norad_id": 66503,
        "name": "STARLINK-35917",
        "group": "last-30-days",
        "lat": 30.799144380221907,
        "lon": -166.6231057885088,
        "alt_km": 406.03457059972516,
        "timestamp": "2025-12-07T20:38:12.866740+00:00",
        "meta_object_name": "STARLINK-35917",
        "meta_object_id": "2025-263U",
        "meta_epoch": "2025-12-07T06:00:04.999968",
        "meta_mean_motion": 15.54993001,
        "meta_eccentricity": 0.00013574,
        "meta_inclination": 43.0005,
        "meta_ra_of_asc_node": 157.1924,
        "meta_arg_of_pericenter": 265.1006,
        "meta_mean_anomaly": 328.8112,
        "meta_ephemeris_type": 0,
        "meta_classification_type": "U",
        "meta_norad_cat_id": 66503,
        "meta_element_set_no": 999,
        "meta_rev_at_epoch": 475,
        "meta_bstar": -0.033816011,
        "meta_mean_motion_dot": -0.0207339,
        "meta_mean_motion_ddot": 0,
        "tle_line1": "1 66503U 25263U   25341.25005787 -.02073390  00000+0 -33816-1 0  9994",
        "tle_line2": "2 66503  43.0005 157.1924 0001357 265.1006 328.8112 15.54993001  4757"
      },
      "geometry": {
        "type": "Point",
        "coordinates": [
          -166.6231057885088,
          30.799144380221907
        ]
      }
    },
    {
      "type": "Feature",
      "properties": {
        "norad_id": 66504,
        "name": "STARLINK-35916",
        "group": "last-30-days",
        "lat": -33.62818434357245,
        "lon": 109.20660554859339,
        "alt_km": 445.8513334147656,
        "timestamp": "2025-12-07T20:38:12.866750+00:00",
        "meta_object_name": "STARLINK-35916",
        "meta_object_id": "2025-263V",
        "meta_epoch": "2025-12-07T06:00:04.999968",
        "meta_mean_motion": 15.40653387,
        "meta_eccentricity": 0.00021566,
        "meta_inclination": 43.0002,
        "meta_ra_of_asc_node": 158.2616,
        "meta_arg_of_pericenter": 261.0213,
        "meta_mean_anomaly": 258.3787,
        "meta_ephemeris_type": 0,
        "meta_classification_type": "U",
        "meta_norad_cat_id": 66504,
        "meta_element_set_no": 999,
        "meta_rev_at_epoch": 475,
        "meta_bstar": 0.00096951241,
        "meta_mean_motion_dot": 0.00040348,
        "meta_mean_motion_ddot": 0,
        "tle_line1": "1 66504U 25263V   25341.25005787  .00040348  00000+0  96951-3 0  9999",
        "tle_line2": "2 66504  43.0002 158.2616 0002156 261.0213 258.3787 15.40653387  4758"
      },
      "geometry": {
        "type": "Point",
        "coordinates": [
          109.20660554859339,
          -33.62818434357245
        ]
      }
    }
  ]
}